{"type": "FeatureCollection", "features": [ {"type": "Feature", "properties": {"norad_id": 30742, "name": "FENGYUN 1C DEB", "group": "fengyun-1c-debris", "lat": 17.411420587951625, "lon": 32.771098564080404, "alt_km": 907.9041368295339, "timestamp": "2025-12-17T04:57:44.644402+00:00", "meta": {"OBJECT_NAME": "FENGYUN 1C DEB", "OBJECT_ID": "1999-025ATC", "EPOCH": "2025-12-16T22:40:51.279744", "MEAN_MOTION": 14.103912, "ECCENTRICITY": 0.00713931, "INCLINATION": 98.8683, "RA_OF_ASC_NODE": 35.3194, "ARG_OF_PERICENTER": 215.0637, "MEAN_ANOMALY": 274.2727, "EPHEMERIS_TYPE": 0, "CLASSIFICATION_TYPE": "U", "NORAD_CAT_ID": 30742, "ELEMENT_SET_NO": 999, "REV_AT_EPOCH": 96101, "BSTAR": 0.0013866441, "MEAN_MOTION_DOT": 2.479e-05, "MEAN_MOTION_DDOT": 0}, "tle": {"line1": "1 30742U 99025ATC 25350.94503796  .00002479  00000+0  13866-2 0  9996", "line2": "2 30742  98.8683  35.3194 0071393 215.0637 274.2727 14.10391200961011"}}, "geometry": {"type": "Point", "coordinates": [32.771098564080404, 17.411420587951625]}}, {"type": "Feature", "properties": {"norad_id": 30744, "name": "FENGYUN 1C DEB", "group": "fengyun-1c-debris", "lat": -20.373663451163218, "lon": 141.049658129268, "alt_km": 601.6380798035589, "timestamp": "2025-12-17T04:57:44.644411+00:00", "meta": {"OBJECT_NAME": "FENGYUN 1C DEB", "OBJECT_ID": "1999-025ATE", "EPOCH": "2025-12-16T23:11:17.734272", "MEAN_MOTION": 14.89874462, "ECCENTRICITY": 0.00104579, "INCLINATION": 98.7291, "RA_OF_ASC_NODE": 137.5132, "ARG_OF_PERICENTER": 265.0356, "MEAN_ANOMALY": 224.6984, "EPHEMERIS_TYPE": 0, "CLASSIFICATION_TYPE": "U", "NORAD_CAT_ID": 30744, "ELEMENT_SET_NO": 999, "REV_AT_EPOCH": 98151, "BSTAR": 0.0036831703, "MEAN_MOTION_DOT": 0.00035546, "MEAN_MOTION_DDOT": 0}, "tle": {"line1": "1 30744U 99025ATE 25350.96617748  .00035546  00000+0  36832-2 0  9992", "line2": "2 30744  98.7291 137.5132 0010457 265.0356 224.6984 14.89874462981514"}}, "geometry": {"type": "Point", "coordinates": [141.049658129268, -20.373663451163218]}}, {"type": "Feature", "properties": {"norad_id": 30746, "name": "FENGYUN 1C DEB", "group": "fengyun-1c-debris", "lat": -80.75116584176148, "lon": -86.43651374721384, "alt_km": 780.8876725800974, "timestamp": "2025-12-17T04:57:44.644420+00:00", "meta": {"OBJECT_NAME": "FENGYUN 1C DEB", "OBJECT_ID": "1999-025ATG", "EPOCH": "2025-12-16T11:10:11.678016", "MEAN_MOTION": 14.27523657, "ECCENTRICITY": 0.00461246, "INCLINATION": 99.0573, "RA_OF_ASC_NODE": 171.1931, "ARG_OF_PERICENTER": 307.4477, "MEAN_ANOMALY": 113.2713, "EPHEMERIS_TYPE": 0, "CLASSIFICATION_TYPE": "U", "NORAD_CAT_ID": 30746, "ELEMENT_SET_NO": 999, "REV_AT_EPOCH": 97499, "BSTAR": 0.00043223529, "MEAN_MOTION_DOT": 1.027e-05, "MEAN_MOTION_DDOT": 0}, "tle": {"line1": "1 30746U 99025ATG 25350.46541294  .00001027  00000+0  43224-3 0  9992", "line2": "2 30746  99.0573 171.1931 0046124 307.4477 113.2713 14.27523657974995"}}, "geometry": {"type": "Point", "coordinates": [-86.43651374721384, -80.75116584176148]}}, {"type": "Feature", "properties": {"norad_id": 30749, "name": "FENGYUN 1C DEB", "group": "fengyun-1c-debris", "lat": -0.8160059437356412, "lon": -162.2440698360221, "alt_km": 865.8881205881917, "timestamp": "2025-12-17T04:57:44.644429+00:00", "meta": {"OBJECT_NAME": "FENGYUN 1C DEB", "OBJECT_ID": "1999-025ATK", "EPOCH": "2025-12-16T19:31:14.905344", "MEAN_MOTION": 13.99838465, "ECCENTRICITY": 0.00557119, "INCLINATION": 98.887, "RA_OF_ASC_NODE": 17.5016, "ARG_OF_PERICENTER": 221.0887, "MEAN_ANOMALY": 138.6075, "EPHEMERIS_TYPE": 0, "CLASSIFICATION_TYPE": "U", "NORAD_CAT_ID": 30749, "ELEMENT_SET_NO": 999, "REV_AT_EPOCH": 96023, "BSTAR": 4.5375181e-05, "MEAN_MOTION_DOT": 2.4e-07, "MEAN_MOTION_DDOT": 0}, "tle": {"line1": "1 30749U 99025ATK 25350.81336696  .00000024  00000+0  45375-4 0  9998", "line2": "2 30749  98.8870  17.5016 0055711 221.0887 138.6075 13.99838465960238"}}, "geometry": {"type": "Point", "coordinates": [-162.2440698360221, -0.8160059437356412]}}, {"type": "Feature", "properties": {"norad_id": 30750, "name": "FENGYUN 1C DEB", "group": "fengyun-1c-debris", "lat": -11.700893670143277, "lon": -116.01119317992077, "alt_km": 807.7510771048746, "timestamp": "2025-12-17T04:57:44.644438+00:00", "meta": {"OBJECT_NAME": "FENGYUN 1C DEB", "OBJECT_ID": "1999-025ATL", "EPOCH": "2025-12-15T03:27:56.403648", "MEAN_MOTION": 14.2862942, "ECCENTRICITY": 0.00403731, "INCLINATION": 98.9193, "RA_OF_ASC_NODE": 63.7451, "ARG_OF_PERICENTER": 93.1614, "MEAN_ANOMALY": 297.1841, "EPHEMERIS_TYPE": 0, "CLASSIFICATION_TYPE": "U", "NORAD_CAT_ID": 30750, "ELEMENT_SET_NO": 999, "REV_AT_EPOCH": 96816, "BSTAR": 0.0012666476, "MEAN_MOTION_DOT": 3.164e-05, "MEAN_MOTION_DDOT": 0}, "tle": {"line1": "1 30750U 99025ATL 25349.14440282  .00003164  00000+0  12666-2 0  9994", "line2": "2 30750  98.9193  63.7451 0040373  93.1614 297.1841 14.28629420968163"}}, "geometry": {"type": "Point", "coordinates": [-116.01119317992077, -11.700893670143277]}}, {"type": "Feature", "properties": {"norad_id": 30751, "name": "FENGYUN 1C DEB", "group": "fengyun-1c-debris", "lat": 66.66202463372919, "lon": 29.195468362687127, "alt_km": 798.8101298254178, "timestamp": "2025-12-17T04:57:44.644448+00:00", "meta": {"OBJECT_NAME": "FENGYUN 1C DEB", "OBJECT_ID": "1999-025ATM", "EPOCH": "2025-12-16T17:21:04.975200", "MEAN_MOTION": 14.15223927, "ECCENTRICITY": 0.0052016, "INCLINATION": 98.8553, "RA_OF_ASC_NODE": 49.8969, "ARG_OF_PERICENTER": 85.2867, "MEAN_ANOMALY": 39.78, "EPHEMERIS_TYPE": 0, "CLASSIFICATION_TYPE": "U", "NORAD_CAT_ID": 30751, "ELEMENT_SET_NO": 999, "REV_AT_EPOCH": 96332, "BSTAR": 0.0010623757, "MEAN_MOTION_DOT": 2.049e-05, "MEAN_MOTION_DDOT": 0}, "tle": {"line1": "1 30751U 99025ATM 25350.72297425  .00002049  00000+0  10624-2 0  9993", "line2": "2 30751  98.8553  49.8969 0052016  85.2867  39.7800 14.15223927963327"}}, "geometry": {"type": "Point", "coordinates": [29.195468362687127, 66.66202463372919]}}, {"type": "Feature", "properties": {"norad_id": 30753, "name": "FENGYUN 1C DEB", "group": "fengyun-1c-debris", "lat": -8.206407997469523, "lon": -151.55757525502673, "alt_km": 890.0288339783801, "timestamp": "2025-12-17T04:57:44.644457+00:00", "meta": {"OBJECT_NAME": "FENGYUN 1C DEB", "OBJECT_ID": "1999-025ATP", "EPOCH": "2025-12-16T21:16:21.763200", "MEAN_MOTION": 14.12662662, "ECCENTRICITY": 0.0055212, "INCLINATION": 98.8072, "RA_OF_ASC_NODE": 29.4086, "ARG_OF_PERICENTER": 343.1499, "MEAN_ANOMALY": 16.7838, "EPHEMERIS_TYPE": 0, "CLASSIFICATION_TYPE": "U", "NORAD_CAT_ID": 30753, "ELEMENT_SET_NO": 999, "REV_AT_EPOCH": 96410, "BSTAR": 0.00096088643, "MEAN_MOTION_DOT": 1.763e-05, "MEAN_MOTION_DDOT": 0}, "tle": {"line1": "1 30753U 99025ATP 25350.88636300  .00001763  00000+0  96089-3 0  9993", "line2": "2 30753  98.8072  29.4086 0055212 343.1499  16.7838 14.12662662964100"}}, "geometry": {"type": "Point", "coordinates": [-151.55757525502673, -8.206407997469523]}}, {"type": "Feature", "properties": {"norad_id": 30755, "name": "FENGYUN 1C DEB", "group": "fengyun-1c-debris", "lat": 70.62530303167682, "lon": -169.9568324641774, "alt_km": 825.7685542355812, "timestamp": "2025-12-17T04:57:44.644466+00:00", "meta": {"OBJECT_NAME": "FENGYUN 1C DEB", "OBJECT_ID": "1999-025ATR", "EPOCH": "2025-12-15T22:41:22.731072", "MEAN_MOTION": 14.44969806, "ECCENTRICITY": 0.01507945, "INCLINATION": 98.2584, "RA_OF_ASC_NODE": 344.4226, "ARG_OF_PERICENTER": 259.2823, "MEAN_ANOMALY": 131.5401, "EPHEMERIS_TYPE": 0, "CLASSIFICATION_TYPE": "U", "NORAD_CAT_ID": 30755, "ELEMENT_SET_NO": 999, "REV_AT_EPOCH": 98491, "BSTAR": 0.00045900287, "MEAN_MOTION_DOT": 1.79e-05, "MEAN_MOTION_DDOT": 0}, "tle": {"line1": "1 30755U 99025ATR 25349.94540198  .00001790  00000+0  45900-3 0  9995", "line2": "2 30755  98.2584 344.4226 0150794 259.2823 131.5401 14.44969806984917"}}, "geometry": {"type": "Point", "coordinates": [-169.9568324641774, 70.62530303167682]}}, {"type": "Feature", "properties": {"norad_id": 30756, "name": "FENGYUN 1C DEB", "group": "fengyun-1c-debris", "lat": 13.030214102788314, "lon": 56.57138516362436, "alt_km": 814.2910015904208, "timestamp": "2025-12-17T04:57:44.644475+00:00", "meta": {"OBJECT_NAME": "FENGYUN 1C DEB", "OBJECT_ID": "1999-025ATS", "EPOCH": "2025-12-16T03:45:50.457600", "MEAN_MOTION": 14.18297483, "ECCENTRICITY": 0.0071301, "INCLINATION": 98.9905, "RA_OF_ASC_NODE": 57.6077, "ARG_OF_PERICENTER": 306.254, "MEAN_ANOMALY": 108.4477, "EPHEMERIS_TYPE": 0, "CLASSIFICATION_TYPE": "U", "NORAD_CAT_ID": 30756, "ELEMENT_SET_NO": 999, "REV_AT_EPOCH": 96453, "BSTAR": 0.0010654984, "MEAN_MOTION_DOT": 2.204e-05, "MEAN_MOTION_DDOT": 0}, "tle": {"line1": "1 30756U 99025ATS 25350.15683400  .00002204  00000+0  10655-2 0  9994", "line2": "2 30756  98.9905  57.6077 0071301 306.2540 108.4477 14.18297483964532"}}, "geometry": {"type": "Point", "coordinates": [56.57138516362436, 13.030214102788314]}}, {"type": "Feature", "properties": {"norad_id": 30758, "name": "FENGYUN 1C DEB", "group": "fengyun-1c-debris", "lat": 26.5569445174658, "lon": 105.41154886983284, "alt_km": 811.8032275481564, "timestamp": "2025-12-17T04:57:44.644635+00:00", "meta": {"OBJECT_NAME": "FENGYUN 1C DEB", "OBJECT_ID": "1999-025ATU", "EPOCH": "2025-12-16T13:39:32.375808", "MEAN_MOTION": 14.17126593, "ECCENTRICITY": 0.00383738, "INCLINATION": 99.0183, "RA_OF_ASC_NODE": 109.3179, "ARG_OF_PERICENTER": 352.0872, "MEAN_ANOMALY": 23.4456, "EPHEMERIS_TYPE": 0, "CLASSIFICATION_TYPE": "U", "NORAD_CAT_ID": 30758, "ELEMENT_SET_NO": 999, "REV_AT_EPOCH": 96545, "BSTAR": 0.00083635571, "MEAN_MOTION_DOT": 1.651e-05, "MEAN_MOTION_DDOT": 0}, "tle": {"line1": "1 30758U 99025ATU 25350.56912472  .00001651  00000+0  83636-3 0  9990", "line2": "2 30758  99.0183 109.3179 0038373 352.0872  23.4456 14.17126593965458"}}, "geometry": {"type": "Point", "coordinates": [105.41154886983284, 26.5569445174658]}}]}